STARLINK-37701          
1 69306U 26119L   26169.25002315 -.02537945  00000+0 -32460-1 0  9997
2 69306  97.2845 195.1282 0001460  57.4566  36.0672 15.62815192  4214
STARLINK-37732          
1 69307U 26119M   26169.25002315 -.02590258  00000+0 -25936-1 0  9994
2 69307  97.2843 195.1522 0001812  80.4996  79.1979 15.68953314  4217
STARLINK-37689          
1 69308U 26119N   26169.25002315 -.00014013  00000+0 -25629-3 0  9994
2 69308  97.2848 194.9294 0000731  77.0612 279.2736 15.49206319  4211
STARLINK-37619          
1 69309U 26119P   26169.25002315 -.02547792  00000+0 -28047-1 0  9997
2 69309  97.2844 195.1511 0001852  61.6412  88.0896 15.66579657  4215
STARLINK-37794          
1 69310U 26119Q   26169.25002315 -.01192613  00000+0 -19412-1 0  9992
2 69310  97.2867 195.0792 0001703  90.8647 250.5762 15.55574661  4217
STARLINK-37795          
1 69311U 26119R   26169.25002315 -.00004664  00000+0 -84135-4 0  9997
2 69311  97.2846 194.9411 0000326  80.4873 301.2358 15.49192459  4216
STARLINK-37790          
1 69312U 26119S   26169.25002315 -.02461301  00000+0 -33600-1 0  9993
2 69312  97.2849 195.1338 0001448  59.4364  44.1685 15.61026189  4214
STARLINK-37676          
1 69313U 26119T   26169.25002315 -.02643958  00000+0 -25303-1 0  9995
2 69313  97.2839 195.1745 0001824  85.2016 124.1509 15.70115944  4217
STARLINK-37617          
1 69314U 26119U   26169.25002315 -.01689981  00000+0 -21967-1 0  9993
2 69314  97.2846 195.1315 0001396  63.5140  42.5068 15.62100188  4218
STARLINK-37627          
1 69315U 26119V   26169.25002315 -.02555497  00000+0 -34750-1 0  9993
2 69315  97.2849 195.1434 0001743  61.0422  68.7015 15.61270503  4216
STARLINK-37738          
1 69316U 26119W   26169.25002315 -.01928164  00000+0 -24673-1 0  9991
2 69316  97.2844 195.1301 0001465  58.8246  40.1519 15.62395716  4212
STARLINK-37799          
1 69317U 26119X   26169.25002315 -.02632131  00000+0 -22172-1 0  9991
2 69317  97.2837 195.1819 0001848  90.3984 135.4263 15.73105303  4165
STARLINK-37802          
1 69318U 26119Y   26169.25002315 -.02615921  00000+0 -27219-1 0  9997
2 69318  97.2842 195.1690 0001772  94.5603 102.6980 15.68060444  4217
STARLINK-37803          
1 69319U 26119Z   26169.25002315 -.01823091  00000+0 -30629-1 0  9995
2 69319  97.2850 195.0809 0001222  92.5439 246.8527 15.55038371  4165
GUOWANG TEST OBJECT A   
1 69320U 26120A   26158.46264223  .00009002  00000+0  24096-3 0  9996
2 69320  54.9967  71.5399 0009599 294.3963  65.6063 15.38803685  1198
GUOWANG TEST OBJECT B   
1 69321U 26120B   26168.91819478  .00008729  00000+0  23453-3 0  9997
2 69321  54.9983  24.4454 0010233 332.8758  27.1734 15.38721277  2806
GUOWANG TEST OBJECT C   
1 69322U 26120C   26158.91389784  .00016153  00000+0  41736-3 0  9993
2 69322  54.9968  69.4792 0009850 309.3319  50.6835 15.39284097  1266
GUOWANG TEST OBJECT D   
1 69323U 26120D   26168.97882167  .00001410  00000+0  45962-4 0  9990
2 69323  54.9980  24.1234 0011756 346.0651  14.0051 15.39049885  2815
QIANFAN-163             
1 69325U 26121A   26169.32957293  .00000023  00000+0  14424-4 0  9994
2 69325  89.0147 300.3997 0020192 185.5696 174.5238 13.59758203  2310
QIANFAN-164             
1 69326U 26121B   26162.41240743  .00000112  00000+0  13228-3 0  9992
2 69326  89.0157 301.0998 0019383 205.3125 154.7084 13.60355109  1373
SZ-22 MODULE            
1 69328U 25272C   26167.85575198  .00018201  00000+0  22051-3 0  9990
2 69328  41.4806 324.1231 0006297  83.9376 276.2180 15.60203853  3270
STARLINK-37733          
1 69329U 26122A   26169.17634721 -.00420355  00000+0 -23398-2 0  9994
2 69329  97.2827 198.6747 0001407 137.8378 222.2998 15.80450219  2312
STARLINK-37772          
1 69330U 26122B   26169.17147880 -.00256284  00000+0 -14722-2 0  9990
2 69330  97.2824 198.6815 0000295 117.2851 242.8447 15.79347144  2316
STARLINK-37768          
1 69331U 26122C   26169.25002315 -.02607882  00000+0 -25069-1 0  9994
2 69331  97.2840 198.7500 0001462  66.2304 348.3693 15.69963034  3474
STARLINK-37833          
1 69332U 26122D   26169.25002315 -.02581756  00000+0 -19315-1 0  9993
2 69332  97.2837 198.7677 0001596  71.7334  23.1819 15.76383921  3475
STARLINK-37818          
1 69333U 26122E   26169.25002315 -.02514771  00000+0 -20163-1 0  9990
2 69333  97.2841 198.7603 0001508  68.1589   9.6884 15.74703359  3521
STARLINK-37868          
1 69334U 26122F   26169.16363917 -.00915051  00000+0 -56278-2 0  9990
2 69334  97.2834 198.6928 0001095 280.6464  79.4680 15.79513171  2318
STARLINK-37877          
1 69335U 26122G   26169.25002315 -.02596138  00000+0 -29032-1 0  9993
2 69335  97.2841 198.7537 0001530  63.4904 359.8596 15.66267811  3522
STARLINK-37791          
1 69336U 26122H   26169.25002315 -.02596464  00000+0 -20565-1 0  9998
2 69336  97.2836 198.7819 0001712  75.7078  53.0459 15.74482301  3523
