OBJECT_NAME,OBJECT_ID,EPOCH,MEAN_MOTION,ECCENTRICITY,INCLINATION,RA_OF_ASC_NODE,ARG_OF_PERICENTER,MEAN_ANOMALY,EPHEMERIS_TYPE,CLASSIFICATION_TYPE,NORAD_CAT_ID,ELEMENT_SET_NO,REV_AT_EPOCH,BSTAR,MEAN_MOTION_DOT,MEAN_MOTION_DDOT
STARLINK-37701,2026-119L,2026-06-18T06:00:02.000160,15.62815192,.00014607,97.2845,195.1282,57.4566,36.0672,0,U,69306,999,421,-.32459617E-1,-.2537945E-1,0
STARLINK-37732,2026-119M,2026-06-18T06:00:02.000160,15.68953314,.0001812,97.2843,195.1522,80.4996,79.1979,0,U,69307,999,421,-.25936071E-1,-.2590258E-1,0
STARLINK-37689,2026-119N,2026-06-18T06:00:02.000160,15.49206319,.00007319,97.2848,194.9294,77.0612,279.2736,0,U,69308,999,421,-.25629219E-3,-.14013E-3,0
STARLINK-37619,2026-119P,2026-06-18T06:00:02.000160,15.66579657,.00018529,97.2844,195.1511,61.6412,88.0896,0,U,69309,999,421,-.28047312E-1,-.2547792E-1,0
STARLINK-37794,2026-119Q,2026-06-18T06:00:02.000160,15.55574661,.00017033,97.2867,195.0792,90.8647,250.5762,0,U,69310,999,421,-.19411762E-1,-.1192613E-1,0
STARLINK-37795,2026-119R,2026-06-18T06:00:02.000160,15.49192459,.00003264,97.2846,194.9411,80.4873,301.2358,0,U,69311,999,421,-.84134885E-4,-.4664E-4,0
STARLINK-37790,2026-119S,2026-06-18T06:00:02.000160,15.61026189,.00014482,97.2849,195.1338,59.4364,44.1685,0,U,69312,999,421,-.3359999E-1,-.2461301E-1,0
STARLINK-37676,2026-119T,2026-06-18T06:00:02.000160,15.70115944,.00018249,97.2839,195.1745,85.2016,124.1509,0,U,69313,999,421,-.25302735E-1,-.2643958E-1,0
STARLINK-37617,2026-119U,2026-06-18T06:00:02.000160,15.62100188,.00013962,97.2846,195.1315,63.5140,42.5068,0,U,69314,999,421,-.21967222E-1,-.1689981E-1,0
STARLINK-37627,2026-119V,2026-06-18T06:00:02.000160,15.61270503,.00017438,97.2849,195.1434,61.0422,68.7015,0,U,69315,999,421,-.34750224E-1,-.2555497E-1,0
STARLINK-37738,2026-119W,2026-06-18T06:00:02.000160,15.62395716,.00014658,97.2844,195.1301,58.8246,40.1519,0,U,69316,999,421,-.24672953E-1,-.1928164E-1,0
STARLINK-37799,2026-119X,2026-06-18T06:00:02.000160,15.73105303,.00018484,97.2837,195.1819,90.3984,135.4263,0,U,69317,999,416,-.22172437E-1,-.2632131E-1,0
STARLINK-37802,2026-119Y,2026-06-18T06:00:02.000160,15.68060444,.00017726,97.2842,195.1690,94.5603,102.6980,0,U,69318,999,421,-.27218649E-1,-.2615921E-1,0
STARLINK-37803,2026-119Z,2026-06-18T06:00:02.000160,15.55038371,.00012223,97.2850,195.0809,92.5439,246.8527,0,U,69319,999,416,-.30629482E-1,-.1823091E-1,0
GUOWANG TEST OBJECT A,2026-120A,2026-06-07T11:06:12.288672,15.38803685,.00095994,54.9967,71.5399,294.3963,65.6063,0,U,69320,999,119,.24095813E-3,.9002E-4,0
GUOWANG TEST OBJECT B,2026-120B,2026-06-17T22:02:12.028992,15.38721277,.00102338,54.9983,24.4454,332.8758,27.1734,0,U,69321,999,280,.23453461E-3,.8729E-4,0
GUOWANG TEST OBJECT C,2026-120C,2026-06-07T21:56:00.773376,15.39284097,.00098504,54.9968,69.4792,309.3319,50.6835,0,U,69322,999,126,.41735581E-3,.16153E-3,0
GUOWANG TEST OBJECT D,2026-120D,2026-06-17T23:29:30.192288,15.39049885,.00117566,54.9980,24.1234,346.0651,14.0051,0,U,69323,999,281,.45962169E-4,.141E-4,0
QIANFAN-163,2026-121A,2026-06-18T07:54:35.101152,13.59758203,.00201925,89.0147,300.3997,185.5696,174.5238,0,U,69325,999,231,.14423855E-4,.23E-6,0
QIANFAN-164,2026-121B,2026-06-11T09:53:52.001952,13.60355109,.0019383,89.0157,301.0998,205.3125,154.7084,0,U,69326,999,137,.13228E-3,.112E-5,0
SZ-22 MODULE,2025-272C,2026-06-16T20:32:16.971072,15.60203853,.00062974,41.4806,324.1231,83.9376,276.2180,0,U,69328,999,327,.22050625E-3,.18201E-3,0
STARLINK-37733,2026-122A,2026-06-18T04:13:56.398944,15.80450219,.00014071,97.2827,198.6747,137.8378,222.2998,0,U,69329,999,231,-.23398453E-2,-.420355E-2,0
STARLINK-37772,2026-122B,2026-06-18T04:06:55.768320,15.79347144,.00002956,97.2824,198.6815,117.2851,242.8447,0,U,69330,999,231,-.14721776E-2,-.256284E-2,0
STARLINK-37768,2026-122C,2026-06-18T06:00:02.000160,15.69963034,.00014623,97.2840,198.7500,66.2304,348.3693,0,U,69331,999,347,-.25068722E-1,-.2607882E-1,0
STARLINK-37833,2026-122D,2026-06-18T06:00:02.000160,15.76383921,.00015964,97.2837,198.7677,71.7334,23.1819,0,U,69332,999,347,-.19315312E-1,-.2581756E-1,0
STARLINK-37818,2026-122E,2026-06-18T06:00:02.000160,15.74703359,.00015085,97.2841,198.7603,68.1589,9.6884,0,U,69333,999,352,-.20163236E-1,-.2514771E-1,0
STARLINK-37868,2026-122F,2026-06-18T03:55:38.424288,15.79513171,.0001095,97.2834,198.6928,280.6464,79.4680,0,U,69334,999,231,-.56277698E-2,-.915051E-2,0
STARLINK-37877,2026-122G,2026-06-18T06:00:02.000160,15.66267811,.00015308,97.2841,198.7537,63.4904,359.8596,0,U,69335,999,352,-.29031864E-1,-.2596138E-1,0
STARLINK-37791,2026-122H,2026-06-18T06:00:02.000160,15.74482301,.00017125,97.2836,198.7819,75.7078,53.0459,0,U,69336,999,352,-.20565471E-1,-.2596464E-1,0
